332P-B/Ikeya-Murakami,e,9.3805,3.8028,152.3711,3.082329,0.1821317,0.48970701,359.9699,03/17.0/2016,2000,g 19.0,4.0
# From MPEC 2016-K18
332P-C/Ikeya-Murakami,e,9.3794,3.7829,152.2872,3.087459,0.1816780,0.48931033,110.4235,04/18.0/2023,2000,g 16.5,4.0
# From MPEC 2016-ED0
332P-D/Ikeya-Murakami,e,9.3761,3.7923,152.4393,3.081138,0.1822373,0.48977814,359.9486,03/17.0/2016,2000,g 19.0,4.0
# From MPEC 2016-ED0
332P-E/Ikeya-Murakami,e,9.3774,3.8228,152.2825,3.079877,0.1823493,0.48922008,359.9889,03/17.0/2016,2000,g 21.0,4.0
# From MPEC 2016-ED0
332P-F/Ikeya-Murakami,e,9.5293,3.4757,152.8203,3.163214,0.1751908,0.49918860,359.8501,03/17.0/2016,2000,g 21.0,4.0
# From MPEC 2016-ED0
332P-G/Ikeya-Murakami,e,9.2523,3.6955,154.4000,3.050519,0.1849880,0.49200362,359.9006,03/19.0/2016,2000,g 19.0,4.0
# From MPC100285
332P-H/Ikeya-Murakami,e,9.3799,3.7826,152.2878,3.087642,0.1816618,0.48934575,110.3486,04/18.0/2023,2000,g 19.0,4.0
# From MPEC 2016-ED0
332P-I/Ikeya-Murakami,e,9.3791,3.8048,152.3297,3.081767,0.1821815,0.48955490,359.9360,03/17.0/2016,2000,g 20.5,2.0
# From MPEC 2016-EI8
332P-J/Ikeya-Murakami,e,9.4296,3.6729,152.7712,3.115165,0.1792596,0.49429435,359.8613,03/17.0/2016,2000,g 20.5,2.0
# From MPEC 2020-L06
333P/LINEAR,e,132.0137,115.6736,25.9881,4.221506,0.1136326,0.73638264,292.8151,04/18.0/2023,2000,g 15.0,4.0
# From MPC115888
334P/NEAT,e,20.3906,90.5622,90.0762,6.834661,0.0551606,0.35061952,118.2952,04/18.0/2023,2000,g 10.5,4.0
# From MPEC 2021-U31
335P/Gibbs,e,7.2928,330.8420,162.3048,3.578493,0.1455975,0.54626428,36.2526,04/18.0/2023,2000,g 17.0,4.0
# From MPC105244
336P/McNaught,e,17.8245,298.2740,308.6661,5.036620,0.0871957,0.44385466,197.9108,04/18.0/2023,2000,g 13.5,4.0
# From MPEC 2022-YN2
337P/WISE,e,15.3678,106.0195,161.1316,3.288837,0.1652497,0.49696818,48.0381,04/18.0/2023,2000,g 17.0,4.0
# From MPEC 2022-K19
338P/McNaught,e,25.3862,9.7980,4.5208,3.893087,0.1283107,0.41213572,299.3276,04/18.0/2023,2000,g 12.0,4.0
# From MPC101101
339P/Gibbs,e,5.7332,172.7230,27.4656,3.700440,0.1384599,0.63564786,341.3145,04/18.0/2023,2000,g 17.0,4.0
# From MPC133426
340P/Boattini,e,2.0781,291.7051,35.9838,4.249890,0.1124961,0.28065725,262.8273,04/18.0/2023,2000,g 14.3,4.0
# From MPEC 2022-K19
341P/Gibbs,e,3.7971,29.9678,312.2820,4.290055,0.1109200,0.41568635,278.4351,04/18.0/2023,2000,g 12.5,4.0
# From MPC101101
342P/SOHO,e,11.6667,27.7101,73.2496,3.041234,0.1858358,0.98281828,0.0000,10/19.2876/2021,2000,g  9.0,4.0
# From MPEC 2022-K19
343P/NEAT-LONEOS,e,5.5923,257.0973,137.5062,5.457802,0.0772996,0.58522052,175.2690,04/18.0/2023,2000,g 14.0,4.0
# From MPC109148
344P/Read,e,3.4959,273.1130,140.4686,4.860339,0.0919823,0.42337356,216.6533,04/18.0/2023,2000,g 13.0,4.0
# From MPEC 2022-K19
345P/LINEAR,e,2.7275,154.5131,196.6367,4.033936,0.1216496,0.22147053,299.1283,04/18.0/2023,2000,g 12.0,4.0
# From MPEC 2022-K19
346P/Catalina,e,22.2067,102.4518,335.9703,4.472672,0.1041966,0.50340889,234.8116,04/18.0/2023,2000,g 14.0,4.0
# From MPEC 2022-K19
347P/PANSTARRS,e,11.7539,261.0194,98.4337,3.604672,0.1440142,0.38621617,346.5962,04/18.0/2023,2000,g 15.0,4.0
# From MPEC 2022-ED3
348P/PANSTARRS,e,17.7368,312.9339,135.6933,3.151834,0.1761404,0.30713480,75.6282,04/18.0/2023,2000,g 14.0,4.0
# From MPEC 2022-K19
349P/Lemmon,e,5.4896,331.7565,255.8590,3.576901,0.1456947,0.29841309,300.9387,04/18.0/2023,2000,g 14.0,4.0
# From MPC111775
350P/McNaught,e,7.3647,65.2942,139.7174,4.083672,0.1194339,0.09367070,233.0132,04/18.0/2023,2000,g 14.0,4.0
# From MPC105244
351P/Wiegert-PANSTARRS,e,12.7779,283.4148,352.6584,4.439668,0.1053606,0.29500539,285.3401,04/18.0/2023,2000,g 12.5,4.0
# From MPC110086
352P/Skiff,e,21.0136,28.0007,309.3715,6.646660,0.0575173,0.61760884,122.2432,04/18.0/2023,2000,g 11.5,4.0
# From MPEC 2020-AA5
353P/McNaught,e,28.4091,121.5158,230.4931,4.170599,0.1157195,0.47031140,224.6361,04/18.0/2023,2000,g 14.5,4.0
# From MPC105545
354P/LINEAR,e,5.2508,320.0989,132.6307,2.290820,0.2842613,0.12497031,309.1900,04/18.0/2023,2000,g 15.5,4.0
# From MPEC 2023-CD7
355P/LINEAR-NEAT,e,11.0470,51.4336,336.3216,3.468969,0.1525469,0.50789520,306.6983,04/18.0/2023,2000,g 15.5,2.0
# From MPEC 2022-F14
356P/WISE,e,9.6374,160.7897,226.0776,4.156350,0.1163151,0.35597519,226.1620,04/18.0/2023,2000,g 14.0,4.0
# From MPC114609
357P/Hill,e,6.3164,44.5580,1.4172,4.457490,0.1047294,0.43589197,186.6985,04/18.0/2023,2000,g 15.5,4.0
# From MPEC 2020-HN5
358P/PANSTARRS,e,11.0600,85.7001,299.7673,3.147075,0.1765401,0.23908469,323.4368,04/18.0/2023,2000,g 18.0,4.0
# From MPC110086
359P/LONEOS,e,10.2645,149.7482,200.2915,4.640431,0.0985976,0.32402162,203.4454,04/18.0/2023,2000,g 13.5,4.0
# From MPC108599
360P/WISE,e,24.1106,2.1895,354.2167,3.699372,0.1385199,0.49929458,285.9425,04/18.0/2023,2000,g 19.5,6.0
# From MPEC 2023-CD7
361P/Spacewatch,e,13.9035,203.2593,219.0104,4.934853,0.0899068,0.43916808,157.2327,04/18.0/2023,2000,g 12.0,4.0
# From MPEC 2017-V13
362P/,e,15.5569,192.5451,53.5671,3.972480,0.1244834,0.27870862,302.8016,04/18.0/2023,2000,g 12.9,2.0
# From MPC114609
363P/Lemmon,e,5.4017,146.8682,340.8772,3.569989,0.1461180,0.51958396,275.9485,04/18.0/2023,2000,g 17.5,4.0
# From MPEC 2023-G31
364P/PANSTARRS,e,12.1374,46.1481,212.0197,2.879848,0.2016739,0.72176089,354.7529,04/18.0/2023,2000,g 17.0,2.0
# From MPC111775
365P/PANSTARRS,e,9.8441,86.3077,67.7597,3.156562,0.1757448,0.58134907,329.3554,04/18.0/2023,2000,g 17.0,4.0
# From MPC114610
366P/Spacewatch,e,8.8569,70.7628,153.0252,3.497270,0.1506990,0.34809975,261.4099,04/18.0/2023,2000,g 15.0,4.0
# From MPC112395
367P/Catalina,e,8.4592,58.7173,172.7673,3.508288,0.1499897,0.27972856,264.7492,04/18.0/2023,2000,g 17.5,2.0
# From MPC114610
368P/NEAT,e,15.4831,257.8324,118.9484,5.530253,0.0757856,0.62669561,126.9565,04/18.0/2023,2000,g 14.0,4.0
# From MPC114610
369P/Hill,e,10.3247,47.2923,13.1610,4.381204,0.1074766,0.55553632,176.7072,04/18.0/2023,2000,g 15.0,4.0
# From MPEC 2021-F20
370P/NEAT,e,19.4274,55.0658,356.7182,6.435223,0.0603752,0.61541826,106.9714,04/18.0/2023,2000,g 13.0,4.0
# From MPC114610
371P/LINEAR-Skiff,e,17.3868,67.2373,308.5756,4.180641,0.1153028,0.47708718,190.7631,04/18.0/2023,2000,g 16.0,4.0
# From MPEC 2020-K19
372P/McNaught,e,9.5054,325.8149,27.6730,4.508641,0.1029522,0.15235848,168.4838,04/18.0/2023,2000,g 13.5,4.0
# From MPEC 2021-F20
373P/Rinner,e,13.7704,231.9654,221.0038,3.800395,0.1330335,0.39306126,195.5155,04/18.0/2023,2000,g 14.5,4.0
# From MPC114610
374P/Larson,e,10.7661,7.9122,51.4583,4.971390,0.0889175,0.46349162,138.4254,04/18.0/2023,2000,g 14.0,4.0
# From MPEC 2021-F20
375P/Hill,e,17.3621,359.9379,119.3640,5.549264,0.0753965,0.65911865,119.0427,04/18.0/2023,2000,g 16.0,4.0
# From MPEC 2022-K19
376P/LONEOS,e,1.1691,313.3331,285.1106,5.763488,0.0712321,0.51551662,93.0126,04/18.0/2023,2000,g 12.5,4.0
# From MPEC 2022-N37
377P/Scotti,e,9.0241,226.0653,354.9903,6.702367,0.0568018,0.25127730,57.4220,04/18.0/2023,2000,g  9.5,4.0
# From MPEC 2023-D41
378P/McNaught,e,19.0732,94.0207,193.5719,6.319227,0.0620452,0.46703670,56.7456,04/18.0/2023,2000,g 12.0,4.0
# From MPC115889
379P/Spacewatch,e,12.4502,183.8302,30.5616,3.503859,0.1502741,0.34558519,203.1474,04/18.0/2023,2000,g 15.0,4.0
# From MPEC 2023-C45
380P/PANSTARRS,e,8.0583,130.4006,86.8201,4.409916,0.1064287,0.34326682,152.2912,04/18.0/2023,2000,g 12.5,4.0
# From MPEC 2021-J28
381P/LINEAR-Spacewatch,e,28.3759,173.7644,173.3075,7.138285,0.0516789,0.68169806,67.1260,04/18.0/2023,2000,g 17.5,2.0
# From MPEC 2022-Y15
382P/Larson,e,8.4016,173.5083,164.8480,6.120857,0.0650857,0.28422739,31.1856,04/18.0/2023,2000,g  8.0,4.0
# From MPEC 2022-OB6
383P/Christensen,e,12.3265,207.8190,133.7869,3.547205,0.1475281,0.59926835,187.2779,04/18.0/2023,2000,g 18.0,4.0
# From MPEC 2022-OB6
384P/Kowalski,e,7.2835,354.2194,37.6556,2.899627,0.1996140,0.61623843,256.1756,04/18.0/2023,2000,g 19.5,4.0
# From MPEC 2021-F20
385P/Hill,e,16.8301,357.0574,44.3596,4.288573,0.1109775,0.40209073,145.3886,04/18.0/2023,2000,g 13.0,4.0
# From MPEC 2021-L04
386P/PANSTARRS,e,15.2330,134.9305,353.1021,4.052274,0.1208248,0.41651211,117.4303,04/18.0/2023,2000,g 14.5,4.0
# From MPEC 2021-J28
387P/Boattini,e,8.9331,259.2415,162.8119,4.797004,0.0938099,0.73685648,123.7202,04/18.0/2023,2000,g 15.0,4.0
# From MPEC 2021-S45
388P/Gibbs,e,23.8896,37.0483,42.2923,5.240986,0.0821457,0.61883112,112.0076,04/18.0/2023,2000,g 13.0,4.0
# From MPEC 2022-OB6
389P/Siding Spring,e,160.0859,218.8818,249.3974,5.633504,0.0737117,0.70453972,88.8404,04/18.0/2023,2000,g 16.0,4.0
# From MPEC 2022-OB6
390P/Gibbs,e,18.5541,152.2664,232.4106,5.811164,0.0703573,0.70742596,78.8879,04/18.0/2023,2000,g 12.0,4.0
# From MPEC 2021-F20
391P/Kowalski,e,21.2647,124.7382,187.3354,4.685079,0.0971916,0.11954288,180.0991,04/18.0/2023,2000,g  8.0,4.0
# From MPEC 2021-J28
392P/LINEAR,e,4.9318,24.8850,71.8688,6.140603,0.0647720,0.68330608,72.0116,04/18.0/2023,2000,g 14.5,4.0
# From MPEC 2021-BE3
393P/Spacewatch-Hill,e,16.7876,36.3917,328.9169,4.793554,0.0939112,0.12045534,118.8272,04/18.0/2023,2000,g 11.0,4.0
# From MPEC 2020-KB7
394P/PANSTARRS,e,8.5297,98.1265,54.4402,4.329855,0.1093941,0.36746719,135.1622,04/18.0/2023,2000,g 16.0,2.4
# From MPEC 2023-C45
395P/Catalina-NEAT,e,3.3704,222.0685,92.9264,6.800280,0.0555794,0.40044960,25.6233,04/18.0/2023,2000,g 10.0,4.0
# From MPEC 2020-KB7
396P/,e,5.4373,136.6461,8.3842,6.804863,0.0555233,0.41586987,73.8214,04/18.0/2023,2000,g 12.0,4.0
# From MPEC 2022-OB6
397P/Lemmon,e,10.9290,8.1954,14.5394,3.830305,0.1314783,0.40526143,135.6957,04/18.0/2023,2000,g 12.0,4.0
# From MPEC 2021-L04
398P/Boattini,e,11.0178,127.4340,320.2083,3.126414,0.1782930,0.58316365,150.1188,04/18.0/2023,2000,g 15.5,4.0
# From MPEC 2022-M88
399P/PANSTARRS,e,13.3218,207.1310,214.3577,3.792273,0.1334611,0.44732336,92.7738,04/18.0/2023,2000,g 14.0,4.0
# From MPEC 2022-ED3
400P/PANSTARRS,e,10.9297,176.3903,238.8359,3.561720,0.1466272,0.40960554,116.7931,04/18.0/2023,2000,g 15.5,2.8
# From MPEC 2022-K19
